ONEWEB-0645             
1 55809U 23029P   24292.40358606 -.00000043  00000+0 -13856-3 0  9998
2 55809  87.9153  65.6511 0002252 100.8553 259.2833 13.19726749 78870
ONEWEB-0646             
1 55810U 23029Q   24293.11595271  .00000019  00000+0  14643-4 0  9997
2 55810  87.9153  65.5069 0001970  91.1180 269.0178 13.19725421 79646
ONEWEB-0648             
1 55811U 23029R   24292.60586932 -.00000030  00000+0 -11674-3 0  9990
2 55811  87.9012  50.3224 0002826  98.8865 261.2585 13.14506366 79704
ONEWEB-0649             
1 55812U 23029S   24292.77555910  .00000163  00000+0  37462-3 0  9999
2 55812  87.9149  65.5679 0002258  97.1042 263.0348 13.19728813 78946
ONEWEB-0650             
1 55813U 23029T   24293.07408007 -.00000093  00000+0 -26535-3 0  9991
2 55813  87.9154  65.5130 0001890  93.9179 266.2170 13.19722296 79646
ONEWEB-0652             
1 55814U 23029U   24293.04355578 -.00000256  00000+0 -72434-3 0  9993
2 55814  87.9010  50.2461 0001613 101.6378 258.4932 13.14505270 80420
ONEWEB-0653             
1 55815U 23029V   24293.02769635  .00000131  00000+0  31787-3 0  9991
2 55815  87.9016  50.2326 0001718 110.1748 249.9567 13.14500277 80453
ONEWEB-0654             
1 55816U 23029W   24293.09905920  .00000154  00000+0  37989-3 0  9993
2 55816  87.9013  50.2254 0001387 110.0846 250.0433 13.14500314 80481
